      2.10          N: GNSS NAV DATA                        RINEX VERSION / TYPE
fic2rin                                 05/15/2023 00:18:01 PGM / RUN BY / DATE
                                                            END OF HEADER
1  23  5 14  1 59 44.0  .185536220670D-03 -.284217094304D-11  .000000000000D+00
     .250000000000D+02  .554375000000D+02  .384980321690D-08 -.657417031052D+00
     .311061739922D-05  .128426926676D-01  .917166471481D-05  .515364932060D+04
     .718400000000D+04  .260770320892D-07  .252133690751D+01  .189989805222D-06
     .990053215370D+00  .222656250000D+03  .960559724814D+00 -.797497504686D-08
     .305727020472D-09  .100000000000D+01  .226200000000D+04  .000000000000D+00
     .240000000000D+01  .000000000000D+00  .465661287308D-08  .250000000000D+02
     .000000000000D+00  .400000000000D+01
17 23  5 14 14  0  0.0  .714754220098D-03  .136424205266D-11  .000000000000D+00
     .480000000000D+02 -.405625000000D+02  .435053836024D-08  .150629569522D+01
    -.244751572609D-05  .135013289982D-01  .785291194916D-05  .515376140213D+04
     .504000000000D+05  .132247805595D-06  .151813179820D+01 -.359490513802D-06
     .974160415680D+00  .233593750000D+03 -.140859402957D+01 -.802283418325D-08
    -.550022910662D-09  .100000000000D+01  .226200000000D+04  .000000000000D+00
     .240000000000D+01  .000000000000D+00 -.111758708954D-07  .480000000000D+02
     .432300000000D+05  .400000000000D+01
1  23  5 14 16  0  0.0  .185393262655D-03 -.284217094304D-11  .000000000000D+00
     .460000000000D+02  .297812500000D+02  .382694512191D-08  .412916031702D+00
     .180862843990D-05  .128423757851D-01  .998564064503D-05  .515364668083D+04
     .576000000000D+05 -.143423676491D-06  .252094980036D+01  .191852450371D-06
     .990061347732D+00  .202531250000D+03  .960699911865D+00 -.789675750308D-08
    -.521450291926D-10  .100000000000D+01  .226200000000D+04  .000000000000D+00
     .240000000000D+01  .000000000000D+00  .465661287308D-08  .460000000000D+02
     .504000000000D+05  .400000000000D+01
2  23  5 14 16  0  0.0 -.596269033849D-03  .386535248253D-11  .000000000000D+00
     .990000000000D+02  .180312500000D+02  .400088093846D-08 -.224693900916D+01
     .102445483208D-05  .173275272828D-01  .101923942566D-04  .515952277756D+04
     .576000000000D+05  .126659870148D-06  .242251046559D+01  .273808836937D-06
     .967504471965D+00  .181750000000D+03 -.128780631997D+01 -.755960060199D-08
    -.460733477113D-10  .100000000000D+01  .226200000000D+04  .000000000000D+00
     .340000000000D+01  .000000000000D+00 -.176951289177D-07  .990000000000D+02
     .504000000000D+05  .400000000000D+01
5  23  5 14 16  0  0.0 -.127173494548D-03 -.147792889038D-11  .000000000000D+00
     .470000000000D+02  .243437500000D+02  .458769109575D-08  .301805411233D+01
     .126101076603D-05  .591464666650D-02  .491738319397D-05  .515366269684D+04
     .576000000000D+05  .242143869400D-07 -.277847750297D+01 -.223517417908D-07
     .965992917711D+00  .287062500000D+03  .114311738457D+01 -.820677041636D-08
     .244653047924D-09  .100000000000D+01  .226200000000D+04  .000000000000D+00
     .240000000000D+01  .000000000000D+00 -.111758708954D-07  .470000000000D+02
     .504000000000D+05  .400000000000D+01
4  23  5 14 16  0  0.0  .413358211517D-04  .977706804406D-11  .000000000000D+00
     .218000000000D+03 -.720937500000D+02  .449911597767D-08  .213045312720D+01
    -.374950468540D-05  .238428881858D-02  .805966556072D-05  .515367236710D+04
     .576000000000D+05 -.223517417908D-07 -.165104889807D+01  .260770320892D-07
     .962353001980D+00  .225062500000D+03 -.297543904389D+01 -.808426531353D-08
    -.294297972978D-09  .100000000000D+01  .226200000000D+04  .000000000000D+00
     .240000000000D+01  .000000000000D+00 -.465661287308D-08  .730000000000D+03
     .504000000000D+05  .400000000000D+01
20 23  5 14 16  0  0.0  .433614477515D-03 -.204636307899D-11  .000000000000D+00
     .170000000000D+02  .358437500000D+02  .494056293713D-08  .121193971607D+01
     .194646418095D-05  .418543966953D-02  .535883009434D-05  .515381371117D+04
     .576000000000D+05 -.912696123123D-07 -.290062586536D+01  .689178705215D-07
     .948546243010D+00  .271156250000D+03 -.288184581251D+01 -.846320966951D-08
     .216437586923D-09  .100000000000D+01  .226200000000D+04  .000000000000D+00
     .240000000000D+01  .000000000000D+00 -.838190317154D-08  .170000000000D+02
     .504000000000D+05  .400000000000D+01
26 23  5 14 16  0  0.0  .240799505264D-03 -.454747350886D-12  .000000000000D+00
     .190000000000D+02  .631250000000D+02  .550594363037D-08 -.185006878229D+01
     .298582017422D-05  .789204775356D-02  .521540641785D-05  .515368609428D+04
     .576000000000D+05  .115483999252D-06  .341032247145D+00 -.391155481339D-07
     .934330080564D+00  .262875000000D+03  .465203722837D+00 -.861893044162D-08
     .372872674501D-09  .100000000000D+01  .226200000000D+04  .000000000000D+00
     .240000000000D+01  .000000000000D+00  .698491930962D-08  .190000000000D+02
     .504000000000D+05  .400000000000D+01
25 23  5 14 16  0  0.0  .442775432020D-03  .272848410532D-11  .000000000000D+00
     .170000000000D+02  .611875000000D+02  .512878506306D-08 -.113242650798D+01
     .348687171936D-05  .111128020799D-01  .534392893314D-05  .515373274803D+04
     .576000000000D+05  .152736902237D-06  .396459685246D+00  .225380063057D-06
     .953526292643D+00  .274437500000D+03  .105116507475D+01 -.845249493748D-08
     .273939982128D-09  .100000000000D+01  .226200000000D+04  .000000000000D+00
     .240000000000D+01  .000000000000D+00  .558793544769D-08  .170000000000D+02
     .504000000000D+05  .400000000000D+01
29 23  5 14 16  0  0.0 -.599388964474D-03 -.136424205266D-11  .000000000000D+00
     .390000000000D+02 -.433437500000D+02  .443661337418D-08  .272103395602D+01
    -.208057463169D-05  .250597379636D-02  .744499266148D-05  .515377103424D+04
     .576000000000D+05  .353902578354D-07  .153213370167D+01  .372529029846D-07
     .976404796802D+00  .246406250000D+03  .238179530349D+01 -.806997900416D-08
    -.423946230491D-09  .100000000000D+01  .226200000000D+04  .000000000000D+00
     .240000000000D+01  .000000000000D+00 -.102445483208D-07  .390000000000D+02
     .504000000000D+05  .400000000000D+01
31 23  5 14 16  0  0.0 -.216096639633D-03 -.795807864051D-12  .000000000000D+00
     .260000000000D+02  .249062500000D+02  .447447209401D-08 -.107455288506D+01
     .141374766827D-05  .105765226763D-01  .107698142529D-04  .515421711349D+04
     .576000000000D+05  .210478901863D-06 -.615734043314D+00 -.391155481339D-07
     .954629066624D+00  .161000000000D+03  .528705876253D+00 -.799140430264D-08
     .277511559470D-09  .100000000000D+01  .226200000000D+04  .000000000000D+00
     .240000000000D+01  .000000000000D+00 -.135041773319D-07  .260000000000D+02
     .504000000000D+05  .400000000000D+01
32 23  5 14 16  0  0.0 -.476354733109D-03 -.920863385545D-11  .000000000000D+00
     .610000000000D+02 -.789062500000D+02  .443089885044D-08 -.302723467229D+01
    -.404939055443D-05  .691078766249D-02  .736676156521D-05  .515374472618D+04
     .576000000000D+05 -.130385160446D-07 -.169454450714D+01 -.558793544769D-07
     .959266530101D+00  .236218750000D+03 -.220652408759D+01 -.799640451092D-08
    -.153934983439D-09  .100000000000D+01  .226200000000D+04  .000000000000D+00
     .240000000000D+01  .000000000000D+00  .465661287308D-09  .610000000000D+02
     .504000000000D+05  .400000000000D+01
24 23  5 14 16  0  0.0 -.188496895134D-03 -.138697942020D-10  .000000000000D+00
     .560000000000D+02  .368750000000D+01  .500627996023D-08  .712733587278D+00
     .130385160446D-06  .138492630795D-01  .117756426334D-04  .515365845108D+04
     .576000000000D+05 -.128522515297D-06 -.726099497347D+00  .109896063805D-06
     .934041775983D+00  .140625000000D+03  .892614402458D+00 -.841177895579D-08
     .592881838765D-10  .100000000000D+01  .226200000000D+04  .000000000000D+00
     .240000000000D+01  .000000000000D+00  .279396772385D-08  .560000000000D+02
     .504000000000D+05  .400000000000D+01
16 23  5 14 16  0  0.0 -.501054804772D-03  .329691829393D-11  .000000000000D+00
     .440000000000D+02  .498437500000D+02  .484305887570D-08 -.278085371642D+01
     .229850411415D-05  .133317729924D-01  .484846532345D-05  .515359502411D+04
     .576000000000D+05  .113621354103D-06  .496876882334D+00 -.314787030220D-06
     .965483308735D+00  .289218750000D+03  .788541953869D+00 -.818284084817D-08
     .186079179516D-09  .100000000000D+01  .226200000000D+04  .000000000000D+00
     .240000000000D+01  .000000000000D+00 -.102445483208D-07  .440000000000D+02
     .504000000000D+05  .400000000000D+01
9  23  5 14 16  0  0.0 -.158970709890D-03  .841282599140D-11  .000000000000D+00
     .250000000000D+02 -.818750000000D+02  .458697678028D-08  .301731293659D+01
    -.419281423092D-05  .235230836552D-02  .782683491707D-05  .515361826706D+04
     .576000000000D+05 -.167638063431D-07 -.170765987347D+01  .745058059692D-08
     .955640354097D+00  .225687500000D+03  .195890880336D+01 -.812140971788D-08
    -.300369654459D-09  .100000000000D+01  .226200000000D+04  .000000000000D+00
     .240000000000D+01  .000000000000D+00  .931322574615D-09  .250000000000D+02
     .504000000000D+05  .400000000000D+01
6  23  5 14 16  0  0.0  .588052906096D-03 -.341060513165D-12  .000000000000D+00
     .140000000000D+02  .326875000000D+02  .369801117987D-08  .590954885266D+00
     .152736902237D-05  .278473249637D-02  .110324472189D-04  .515366775703D+04
     .576000000000D+05  .465661287308D-07  .251262791041D+01 -.447034835815D-07
     .989273945242D+00  .181843750000D+03 -.744024132254D+00 -.770853537715D-08
     .139291516336D-10  .100000000000D+01  .226200000000D+04  .000000000000D+00
     .240000000000D+01  .000000000000D+00  .372529029846D-08  .140000000000D+02
     .504000000000D+05  .400000000000D+01
